     3.02           N: GNSS NAV DATA    E: GALILEO NAV DATA RINEX VERSION / TYPE
NetR9 5.03          Receiver Operator   20160105 000001 UTC PGM / RUN BY / DATE
GAL     .8525D+02  -.8789D+00   .7813D-02   .0000D+00       IONOSPHERIC CORR
GAUT  -.4656612873D-08  .266453526D-14  86400 1878          TIME SYSTEM CORR
    17    17  1851     3                                    LEAP SECONDS
                                                            END OF HEADER
E12 2016 01 05 04 50 00 -.239600660279D-03 -.147409195961D-09  .000000000000D+00
      .610000000000D+02 -.411875000000D+02  .297405245265D-08  .295503168047D+01
     -.186264514923D-05  .251010176726D-03  .981241464615D-05  .544061971283D+04
      .190200000000D+06  .428408384323D-07 -.268974603552D+00  .614672899246D-07
      .967992324423D+00  .131406250000D+03 -.127997499911D+01 -.544022660727D-08
      .433946647048D-09  .513000000000D+03  .187800000000D+04
      .122000000000D+03  .000000000000D+00 -.512227416039D-08 -.488944351673D-08
      .190885000000D+06
E24 2016 01 05 04 50 00  .146902276902D-02  .400348199037D-09  .000000000000D+00
      .610000000000D+02  .435312500000D+02  .284654714154D-08  .311289491001D+01
      .204704701900D-05  .412683817558D-03  .143237411976D-05  .544061993790D+04
      .190200000000D+06 -.409781932831D-07 -.236525108686D+01  .465661287308D-07
      .100098766782D+01  .330343750000D+03 -.512897732706D-01 -.571273795847D-08
      .385730352932D-10  .513000000000D+03  .187800000000D+04
      .122000000000D+03  .000000000000D+00  .523868948221D-07  .582076609135D-07
      .190885000000D+06
E19 2016 01 05 04 50 00 -.100384932011D-04 -.112265752250D-11  .000000000000D+00
      .610000000000D+02  .141562500000D+02  .301083969927D-08 -.188067825551D+01
      .629574060440D-06  .258805812337D-03  .105686485767D-04  .544062041283D+04
      .190200000000D+06  .260770320892D-07  .182771989544D+01  .167638063431D-07
      .958668910511D+00  .112250000000D+03  .234712106411D+01 -.541486840815D-08
     -.383587406527D-09  .513000000000D+03  .187800000000D+04
      .122000000000D+03  .000000000000D+00  .139698386192D-08  .186264514923D-08
      .190885000000D+06
E12 2016 01 05 04 50 00 -.239601242356D-03 -.147480250234D-09  .000000000000D+00
      .610000000000D+02 -.411875000000D+02  .297405245265D-08  .295503168047D+01
     -.186264514923D-05  .251010176726D-03  .981241464615D-05  .544061971283D+04
      .190200000000D+06  .428408384323D-07 -.268974603552D+00  .614672899246D-07
      .967992324423D+00  .131406250000D+03 -.127997499911D+01 -.544022660727D-08
      .433946647048D-09  .258000000000D+03  .187800000000D+04
      .110000000000D+03  .000000000000D+00 -.512227416039D-08  .000000000000D+00
      .190930000000D+06
E19 2016 01 05 04 50 00 -.100399483927D-04 -.120792265079D-11  .000000000000D+00
      .610000000000D+02  .141562500000D+02  .301083969927D-08 -.188067825551D+01
      .629574060440D-06  .258805812337D-03  .105686485767D-04  .544062041283D+04
      .190200000000D+06  .260770320892D-07  .182771989544D+01  .167638063431D-07
      .958668910511D+00  .112250000000D+03  .234712106411D+01 -.541486840815D-08
     -.383587406527D-09  .258000000000D+03  .187800000000D+04
      .107000000000D+03  .000000000000D+00  .139698386192D-08  .000000000000D+00
      .190930000000D+06
E24 2016 01 05 04 50 00  .146901648259D-02  .400532940148D-09  .000000000000D+00
      .610000000000D+02  .435312500000D+02  .284654714154D-08  .311289491001D+01
      .204704701900D-05  .412683817558D-03  .143237411976D-05  .544061993790D+04
      .190200000000D+06 -.409781932831D-07 -.236525108686D+01  .465661287308D-07
      .100098766782D+01  .330343750000D+03 -.512897732706D-01 -.571273795847D-08
      .385730352932D-10  .258000000000D+03  .187800000000D+04
      .107000000000D+03  .000000000000D+00  .523868948221D-07  .000000000000D+00
      .190930000000D+06
E11 2016 01 05 04 50 00  .135964364745D-04  .109849906949D-10  .000000000000D+00
      .610000000000D+02 -.442187500000D+02  .301333980341D-08  .154466728011D+01
     -.192038714886D-05  .129980384372D-03  .964477658272D-05  .544062042236D+04
      .190200000000D+06  .856816768646D-07 -.268955347161D+00 -.428408384323D-07
      .967980533303D+00  .133968750000D+03 -.588053746090D+00 -.546201322906D-08
      .360729311538D-09  .258000000000D+03  .187800000000D+04
      .110000000000D+03  .000000000000D+00 -.814907252789D-08  .000000000000D+00
      .190930000000D+06
E12 2016 01 05 05 00 00 -.239689135924D-03 -.147394985106D-09  .000000000000D+00
      .620000000000D+02 -.403437500000D+02  .297655255679D-08  .302931093487D+01
     -.182911753654D-05  .251136603765D-03  .979192554951D-05  .544061945534D+04
      .190800000000D+06  .335276126862D-07 -.268977911210D+00  .633299350739D-07
      .967992583359D+00  .131937500000D+03 -.127986927695D+01 -.543665502993D-08
      .438946855327D-09  .516000000000D+03  .187800000000D+04
      .122000000000D+03  .000000000000D+00 -.512227416039D-08 -.488944351673D-08
      .191494000000D+06
E11 2016 01 05 05 00 00  .136021408252D-04  .110702558231D-10  .000000000000D+00
      .620000000000D+02 -.438437500000D+02  .301369696115D-08  .161813238109D+01
     -.189803540707D-05  .129932421260D-03  .969693064690D-05  .544062068748D+04
      .190800000000D+06  .968575477600D-07 -.268958684077D+00 -.279396772385D-07
      .967980707390D+00  .133031250000D+03 -.587133756409D+00 -.546487049093D-08
      .372158359032D-09  .516000000000D+03  .187800000000D+04
      .122000000000D+03  .000000000000D+00 -.814907252789D-08 -.908039510250D-08
      .191494000000D+06
E19 2016 01 05 05 00 00 -.100389006548D-04 -.110844666779D-11  .000000000000D+00
      .620000000000D+02  .142812500000D+02  .300655380646D-08 -.180623559756D+01
      .631436705589D-06  .258809886873D-03  .105705112219D-04  .544062044907D+04
      .190800000000D+06  .167638063431D-07  .182771666970D+01  .204890966415D-07
      .958668714480D+00  .112156250000D+03  .234706340758D+01 -.540951104213D-08
     -.388230457071D-09  .516000000000D+03  .187800000000D+04
      .122000000000D+03  .000000000000D+00  .139698386192D-08  .186264514923D-08
      .191494000000D+06
E24 2016 01 05 05 00 00  .146926293382D-02  .400277144763D-09  .000000000000D+00
      .620000000000D+02  .435937500000D+02  .284690429928D-08 -.309589342176D+01
      .204518437386D-05  .412677996792D-03  .143982470036D-05  .544061995125D+04
      .190800000000D+06 -.447034835815D-07 -.236525451741D+01  .409781932831D-07
      .100098766197D+01  .330406250000D+03 -.513018057718D-01 -.571773816675D-08
      .400016662300D-10  .516000000000D+03  .187800000000D+04
      .122000000000D+03  .000000000000D+00  .523868948221D-07  .582076609135D-07
      .191494000000D+06
E11 2016 01 05 05 00 00  .136021408252D-04  .110702558231D-10  .000000000000D+00
      .620000000000D+02 -.438437500000D+02  .301369696115D-08  .161813238109D+01
     -.189803540707D-05  .129932421260D-03  .969693064690D-05  .544062068748D+04
      .190800000000D+06  .968575477600D-07 -.268958684077D+00 -.279396772385D-07
      .967980707390D+00  .133031250000D+03 -.587133756409D+00 -.546487049093D-08
      .372158359032D-09  .513000000000D+03  .187800000000D+04
      .122000000000D+03  .000000000000D+00 -.814907252789D-08 -.908039510250D-08
      .191485000000D+06
E12 2016 01 05 05 00 00 -.239689135924D-03 -.147394985106D-09  .000000000000D+00
      .620000000000D+02 -.403437500000D+02  .297655255679D-08  .302931093487D+01
     -.182911753654D-05  .251136603765D-03  .979192554951D-05  .544061945534D+04
      .190800000000D+06  .335276126862D-07 -.268977911210D+00  .633299350739D-07
      .967992583359D+00  .131937500000D+03 -.127986927695D+01 -.543665502993D-08
      .438946855327D-09  .513000000000D+03  .187800000000D+04
      .122000000000D+03  .000000000000D+00 -.512227416039D-08 -.488944351673D-08
      .191485000000D+06
E24 2016 01 05 05 00 00  .146926293382D-02  .400277144763D-09  .000000000000D+00
      .620000000000D+02  .435937500000D+02  .284690429928D-08 -.309589342176D+01
      .204518437386D-05  .412677996792D-03  .143982470036D-05  .544061995125D+04
      .190800000000D+06 -.447034835815D-07 -.236525451741D+01  .409781932831D-07
      .100098766197D+01  .330406250000D+03 -.513018057718D-01 -.571773816675D-08
      .400016662300D-10  .513000000000D+03  .187800000000D+04
      .122000000000D+03  .000000000000D+00  .523868948221D-07  .582076609135D-07
      .191485000000D+06
E19 2016 01 05 05 00 00 -.100389006548D-04 -.110844666779D-11  .000000000000D+00
      .620000000000D+02  .142812500000D+02  .300655380646D-08 -.180623559756D+01
      .631436705589D-06  .258809886873D-03  .105705112219D-04  .544062044907D+04
      .190800000000D+06  .167638063431D-07  .182771666970D+01  .204890966415D-07
      .958668714480D+00  .112156250000D+03  .234706340758D+01 -.540951104213D-08
     -.388230457071D-09  .513000000000D+03  .187800000000D+04
      .122000000000D+03  .000000000000D+00  .139698386192D-08  .186264514923D-08
      .191485000000D+06
E12 2016 01 05 05 00 00 -.239689834416D-03 -.147480250234D-09  .000000000000D+00
      .620000000000D+02 -.403437500000D+02  .297655255679D-08  .302931093487D+01
     -.182911753654D-05  .251136603765D-03  .979192554951D-05  .544061945534D+04
      .190800000000D+06  .335276126862D-07 -.268977911210D+00  .633299350739D-07
      .967992583359D+00  .131937500000D+03 -.127986927695D+01 -.543665502993D-08
      .438946855327D-09  .258000000000D+03  .187800000000D+04
      .110000000000D+03  .000000000000D+00 -.512227416039D-08  .000000000000D+00
      .191530000000D+06
